IRIDIUM 921             
1 24873U 97034E   24185.17511980  .00031789  00000+0  78048-3 0  9996
2 24873  86.3808 280.1911 0005099 167.5685 192.5696 15.40525116477929
IRIDIUM 26              
1 24903U 97043A   24184.72415707  .00000630  00000+0  20851-3 0  9990
2 24903  86.3952 257.2352 0002311  99.5166 260.6292 14.36421055406561
IRIDIUM 22              
1 24907U 97043E   24185.48900085  .00000571  00000+0  19242-3 0  9992
2 24907  86.3955 260.1648 0002232  93.7319 266.4132 14.35309664406733
DUMMY MASS 1            
1 24925U 97048A   24185.55371306  .00000704  00000+0  76916-4 0  9993
2 24925  86.3347 296.4257 0004927 316.8430  43.2408 14.86268024453573
DUMMY MASS 2            
1 24926U 97048B   24184.85228567  .00000759  00000+0  83649-4 0  9997
2 24926  86.3348 298.2960 0006163 331.8842  28.2049 14.86024995453014
IRIDIUM 29              
1 24944U 97051A   24185.20801516  .00000629  00000+0  21091-3 0  9990
2 24944  86.3954 290.1868 0002024  89.4121 270.7308 14.35758585403406
IRIDIUM 33              
1 24946U 97051C   24184.83128795  .00000534  00000+0  18263-3 0  9993
2 24946  86.3870 289.5950 0009582 129.6100 230.5943 14.34405498402655
IRIDIUM 28              
1 24948U 97051E   24184.78340825  .00000698  00000+0  23045-3 0  9994
2 24948  86.3959 288.0787 0002448 103.0437 257.1033 14.36712675403667
